{
  "type": "FeatureCollection",
  "features": [
    {
      "type": "Feature",
      "properties": {
        "norad_id": 30350,
        "name": "FENGYUN 1C DEB",
        "group": "fengyun-1c-debris",
        "lat": -44.80007482783173,
        "lon": -173.99751634383537,
        "alt_km": 848.8523198654966,
        "timestamp": "2025-12-27T13:34:49.571075+00:00",
        "meta_object_name": "FENGYUN 1C DEB",
        "meta_object_id": "1999-025ABM",
        "meta_epoch": "2025-12-27T00:31:40.236672",
        "meta_mean_motion": 13.82842745,
        "meta_eccentricity": 0.02193044,
        "meta_inclination": 98.0926,
        "meta_ra_of_asc_node": 177.412,
        "meta_arg_of_pericenter": 269.2585,
        "meta_mean_anomaly": 217.6834,
        "meta_ephemeris_type": 0,
        "meta_classification_type": "U",
        "meta_norad_cat_id": 30350,
        "meta_element_set_no": 999,
        "meta_rev_at_epoch": 95179,
        "meta_bstar": 0.00093723072,
        "meta_mean_motion_dot": 1.191e-05,
        "meta_mean_motion_ddot": 0,
        "tle_line1": "1 30350U 99025ABM 25361.02199348  .00001191  00000+0  93723-3 0  9997",
        "tle_line2": "2 30350  98.0926 177.4120 0219304 269.2585 217.6834 13.82842745951791"
      },
      "geometry": {
        "type": "Point",
        "coordinates": [
          -173.99751634383537,
          -44.80007482783173
        ]
      }
    },
    {
      "type": "Feature",
      "properties": {
        "norad_id": 30352,
        "name": "FENGYUN 1C DEB",
        "group": "fengyun-1c-debris",
        "lat": 72.11461131357223,
        "lon": -129.24431026102968,
        "alt_km": 880.3138553012477,
        "timestamp": "2025-12-27T13:34:49.571101+00:00",
        "meta_object_name": "FENGYUN 1C DEB",
        "meta_object_id": "1999-025ABP",
        "meta_epoch": "2025-12-27T08:00:42.479136",
        "meta_mean_motion": 14.07595429,
        "meta_eccentricity": 0.002753,
        "meta_inclination": 98.7635,
        "meta_ra_of_asc_node": 21.9762,
        "meta_arg_of_pericenter": 276.7492,
        "meta_mean_anomaly": 93.8201,
        "meta_ephemeris_type": 0,
        "meta_classification_type": "U",
        "meta_norad_cat_id": 30352,
        "meta_element_set_no": 999,
        "meta_rev_at_epoch": 97116,
        "meta_bstar": 0.00022476206,
        "meta_mean_motion_dot": 3.38e-06,
        "meta_mean_motion_ddot": 0,
        "tle_line1": "1 30352U 99025ABP 25361.33382499  .00000338  00000+0  22476-3 0  9993",
        "tle_line2": "2 30352  98.7635  21.9762 0027530 276.7492  93.8201 14.07595429971167"
      },
      "geometry": {
        "type": "Point",
        "coordinates": [
          -129.24431026102968,
          72.11461131357223
        ]
      }
    },
    {
      "type": "Feature",
      "properties": {
        "norad_id": 30355,
        "name": "FENGYUN 1C DEB",
        "group": "fengyun-1c-debris",
        "lat": -23.389405953353865,
        "lon": 9.201198056836574,
        "alt_km": 821.5581082958888,
        "timestamp": "2025-12-27T13:34:49.571113+00:00",
        "meta_object_name": "FENGYUN 1C DEB",
        "meta_object_id": "1999-025ABS",
        "meta_epoch": "2025-12-26T19:40:05.079072",
        "meta_mean_motion": 14.18856515,
        "meta_eccentricity": 0.00529587,
        "meta_inclination": 98.5889,
        "meta_ra_of_asc_node": 4.7302,
        "meta_arg_of_pericenter": 268.32,
        "meta_mean_anomaly": 217.4414,
        "meta_ephemeris_type": 0,
        "meta_classification_type": "U",
        "meta_norad_cat_id": 30355,
        "meta_element_set_no": 999,
        "meta_rev_at_epoch": 97550,
        "meta_bstar": 0.00062347948,
        "meta_mean_motion_dot": 1.273e-05,
        "meta_mean_motion_ddot": 0,
        "tle_line1": "1 30355U 99025ABS 25360.81950323  .00001273  00000+0  62348-3 0  9996",
        "tle_line2": "2 30355  98.5889   4.7302 0052958 268.3200 217.4414 14.18856515975504"
      },
      "geometry": {
        "type": "Point",
        "coordinates": [
          9.201198056836574,
          -23.389405953353865
        ]
      }
    },
    {
      "type": "Feature",
      "properties": {
        "norad_id": 30356,
        "name": "FENGYUN 1C DEB",
        "group": "fengyun-1c-debris",
        "lat": -7.547591639819219,
        "lon": 175.1996792505433,
        "alt_km": 832.9783253870582,
        "timestamp": "2025-12-27T13:34:49.571124+00:00",
        "meta_object_name": "FENGYUN 1C DEB",
        "meta_object_id": "1999-025ABT",
        "meta_epoch": "2025-12-26T23:21:28.463040",
        "meta_mean_motion": 14.13071408,
        "meta_eccentricity": 0.005204,
        "meta_inclination": 98.6823,
        "meta_ra_of_asc_node": 355.785,
        "meta_arg_of_pericenter": 247.82,
        "meta_mean_anomaly": 167.2755,
        "meta_ephemeris_type": 0,
        "meta_classification_type": "U",
        "meta_norad_cat_id": 30356,
        "meta_element_set_no": 999,
        "meta_rev_at_epoch": 97222,
        "meta_bstar": 0.00073007,
        "meta_mean_motion_dot": 1.338e-05,
        "meta_mean_motion_ddot": 0,
        "tle_line1": "1 30356U 99025ABT 25360.97324610  .00001338  00000+0  73007-3 0  9994",
        "tle_line2": "2 30356  98.6823 355.7850 0052040 247.8200 167.2755 14.13071408972226"
      },
      "geometry": {
        "type": "Point",
        "coordinates": [
          175.1996792505433,
          -7.547591639819219
        ]
      }
    },
    {
      "type": "Feature",
      "properties": {
        "norad_id": 30357,
        "name": "FENGYUN 1C DEB",
        "group": "fengyun-1c-debris",
        "lat": -39.75393788180518,
        "lon": 35.79238933699789,
        "alt_km": 852.1254612785287,
        "timestamp": "2025-12-27T13:34:49.571134+00:00",
        "meta_object_name": "FENGYUN 1C DEB",
        "meta_object_id": "1999-025ABU",
        "meta_epoch": "2025-12-27T02:06:49.527936",
        "meta_mean_motion": 14.05270143,
        "meta_eccentricity": 0.00485043,
        "meta_inclination": 98.805,
        "meta_ra_of_asc_node": 27.921,
        "meta_arg_of_pericenter": 289.1778,
        "meta_mean_anomaly": 134.5707,
        "meta_ephemeris_type": 0,
        "meta_classification_type": "U",
        "meta_norad_cat_id": 30357,
        "meta_element_set_no": 999,
        "meta_rev_at_epoch": 97008,
        "meta_bstar": 0.00027820457,
        "meta_mean_motion_dot": 4.12e-06,
        "meta_mean_motion_ddot": 0,
        "tle_line1": "1 30357U 99025ABU 25361.08807324  .00000412  00000+0  27820-3 0  9990",
        "tle_line2": "2 30357  98.8050  27.9210 0048504 289.1778 134.5707 14.05270143970082"
      },
      "geometry": {
        "type": "Point",
        "coordinates": [
          35.79238933699789,
          -39.75393788180518
        ]
      }
    },
    {
      "type": "Feature",
      "properties": {
        "norad_id": 30358,
        "name": "FENGYUN 1C DEB",
        "group": "fengyun-1c-debris",
        "lat": 80.75643756417162,
        "lon": 77.86528571125574,
        "alt_km": 787.9546256606245,
        "timestamp": "2025-12-27T13:34:49.571144+00:00",
        "meta_object_name": "FENGYUN 1C DEB",
        "meta_object_id": "1999-025ABV",
        "meta_epoch": "2025-12-27T07:13:11.508096",
        "meta_mean_motion": 14.20772135,
        "meta_eccentricity": 0.00824768,
        "meta_inclination": 98.5548,
        "meta_ra_of_asc_node": 189.9536,
        "meta_arg_of_pericenter": 157.2759,
        "meta_mean_anomaly": 22.2867,
        "meta_ephemeris_type": 0,
        "meta_classification_type": "U",
        "meta_norad_cat_id": 30358,
        "meta_element_set_no": 999,
        "meta_rev_at_epoch": 97124,
        "meta_bstar": 0.0018009259,
        "meta_mean_motion_dot": 3.982e-05,
        "meta_mean_motion_ddot": 0,
        "tle_line1": "1 30358U 99025ABV 25361.30082764  .00003982  00000+0  18009-2 0  9992",
        "tle_line2": "2 30358  98.5548 189.9536 0082476 157.2759  22.2867 14.20772135971246"
      },
      "geometry": {
        "type": "Point",
        "coordinates": [
          77.86528571125574,
          80.75643756417162
        ]
      }
    },
    {
      "type": "Feature",
      "properties": {
        "norad_id": 30359,
        "name": "FENGYUN 1C DEB",
        "group": "fengyun-1c-debris",
        "lat": 41.2690877150188,
        "lon": 21.470407703759083,
        "alt_km": 1014.6583012712226,
        "timestamp": "2025-12-27T13:34:49.571154+00:00",
        "meta_object_name": "FENGYUN 1C DEB",
        "meta_object_id": "1999-025ABW",
        "meta_epoch": "2025-12-26T11:04:44.653152",
        "meta_mean_motion": 13.94100709,
        "meta_eccentricity": 0.0145529,
        "meta_inclination": 101.627,
        "meta_ra_of_asc_node": 189.6748,
        "meta_arg_of_pericenter": 308.6412,
        "meta_mean_anomaly": 50.1788,
        "meta_ephemeris_type": 0,
        "meta_classification_type": "U",
        "meta_norad_cat_id": 30359,
        "meta_element_set_no": 999,
        "meta_rev_at_epoch": 95260,
        "meta_bstar": 0.0029945,
        "meta_mean_motion_dot": 4.269e-05,
        "meta_mean_motion_ddot": 0,
        "tle_line1": "1 30359U 99025ABW 25360.46162793  .00004269  00000+0  29945-2 0  9990",
        "tle_line2": "2 30359 101.6270 189.6748 0145529 308.6412  50.1788 13.94100709952607"
      },
      "geometry": {
        "type": "Point",
        "coordinates": [
          21.470407703759083,
          41.2690877150188
        ]
      }
    }
  ]
}